NORAD_CAT_ID,OBJECT_NAME,OBJECT_TYPE,EPOCH,MEAN_MOTION,ECCENTRICITY,INCLINATION,RA_OF_ASC_NODE,ARG_OF_PERICENTER,MEAN_ANOMALY,BSTAR,MEAN_MOTION_DOT,MEAN_MOTION_DDOT,TLE_LINE0,TLE_LINE1,TLE_LINE2,SEMIMAJOR_AXIS,PERIOD,APOGEE,PERIGEE,DECAYED
51876.0,STARLINK-3583,PAYLOAD,2022-06-02 19:13:04,15.08850821,0.0002042,53.2174,65.7096,50.0023,310.1148,1.1044e-05,-1.12e-06,0.0,0 STARLINK-3583,1 51876U 22022AA  22153.80075127 -.00000112  00000-0  11044-4 0  9997,2 51876  53.2174  65.7096 0002042  50.0023 310.1148 15.08850821 15408,6917.847,95.437,541.125,538.3,0.0
51876.0,STARLINK-3583,PAYLOAD,2022-06-03 01:34:37,15.08834515,0.0002155,53.2179,64.5205,50.0713,310.0468,0.00028889,4.312e-05,0.0,0 STARLINK-3583,1 51876U 22022AA  22154.06571209  .00004312  00000-0  28889-3 0  9997,2 51876  53.2179  64.5205 0002155  50.0713 310.0468 15.08834515 15443,6917.897,95.438,541.253,538.271,0.0
51876.0,STARLINK-3583,PAYLOAD,2022-06-03 17:28:30,15.08788144,0.0001589,53.2183,61.5478,53.1717,306.942,0.00081417,0.00012675,0.0,0 STARLINK-3583,1 51876U 22022AA  22154.72813255  .00012675  00000-0  81417-3 0  9997,2 51876  53.2183  61.5478 0001589  53.1717 306.9420 15.08788144 15544,6918.0390000000025,95.441,541.003,538.805,0.0
51876.0,STARLINK-3583,PAYLOAD,2022-06-04 01:25:24,15.08847325,0.0001914,53.2188,60.0607,53.7676,306.3493,3.9947e-05,3.48e-06,0.0,0 STARLINK-3583,1 51876U 22022AA  22155.05931591  .00000348  00000-0  39947-4 0  9994,2 51876  53.2188  60.0607 0001914  53.7676 306.3493 15.08847325 15595,6917.858,95.437,541.047,538.399,0.0
51876.0,STARLINK-3583,PAYLOAD,2022-06-04 10:57:43,15.08852504,0.0001918,53.2186,58.2764,53.0802,307.0366,5.9174e-05,6.54e-06,0.0,0 STARLINK-3583,1 51876U 22022AA  22155.45674938  .00000654  00000-0  59174-4 0  9991,2 51876  53.2186  58.2764 0001918  53.0802 307.0366 15.08852504 15653,6917.842,95.437,541.034,538.38,0.0
51876.0,STARLINK-3583,PAYLOAD,2022-06-05 22:00:00,15.08839396,0.0001865,53.2169,51.7236,48.2542,326.2606,-0.0014879,-0.0002389,0.0,0 STARLINK-3583,1 51876U 22022AA  22156.91667824 -.00023890  00000-0 -14879-2 0  9999,2 51876  53.2169  51.7236 0001865  48.2542 326.2606 15.08839396 15872,6917.882,95.438,541.0369999999998,538.457,0.0
51876.0,STARLINK-3583,PAYLOAD,2022-06-06 14:00:01,15.08815192,0.0001767,53.2171,48.7293,51.793,345.9044,0.0033049,0.00052667,0.0,0 STARLINK-3583,1 51876U 22022AA  22157.58334491  .00052667  00000-0  33049-2 0  9996,2 51876  53.2171  48.7293 0001767  51.7930 345.9044 15.08815192 15978,6917.956,95.439,541.044,538.599,0.0
51876.0,STARLINK-3583,PAYLOAD,2022-06-06 22:00:00,15.08858367,0.0001926,53.2174,47.2344,49.3569,359.9281,-0.0013219,-0.00021275,0.0,0 STARLINK-3583,1 51876U 22022AA  22157.91667824 -.00021275  00000-0 -13219-2 0  9992,2 51876  53.2174  47.2344 0001926  49.3569 359.9281 15.08858367  1301,6917.824000000001,95.436,541.0219999999998,538.357,0.0
51876.0,STARLINK-3583,PAYLOAD,2022-06-07 06:00:00,15.08868066,0.000192,53.2171,45.738,45.5986,15.2922,-0.0028664,-0.00045654,0.0,0 STARLINK-3583,1 51876U 22022AA  22158.25001157 -.00045654  00000-0 -28664-2 0  9998,2 51876  53.2171  45.7380 0001920  45.5986  15.2922 15.08868066 16077,6917.795,95.436,540.988,538.331,0.0
51876.0,STARLINK-3583,PAYLOAD,2022-06-07 14:00:01,15.0881209,0.0001701,53.2175,44.24,51.6044,20.9032,0.0032162,0.00051231,0.0,0 STARLINK-3583,1 51876U 22022AA  22158.58334491  .00051231  00000-0  32162-2 0  9998,2 51876  53.2175  44.2400 0001701  51.6044  20.9032 15.08812090  1309,6917.965999999999,95.439,541.007,538.654,0.0
51876.0,STARLINK-3583,PAYLOAD,2022-06-07 22:00:00,15.08856064,0.0001845,53.2177,42.7453,48.5695,35.5268,-0.00097497,-0.00015778,0.0,0 STARLINK-3583,1 51876U 22022AA  22158.91667824 -.00015778  00000-0 -97497-3 0  9995,2 51876  53.2177  42.7453 0001845  48.5695  35.5268 15.08856064 16171,6917.831,95.437,540.9730000000002,538.42,0.0
51876.0,STARLINK-3583,PAYLOAD,2022-06-08 14:00:01,15.08816463,0.0001592,53.2177,39.751,50.9826,56.3284,0.002736,0.00043496,0.0,0 STARLINK-3583,1 51876U 22022AA  22159.58334491  .00043496  00000-0  27360-2 0  9997,2 51876  53.2177  39.7510 0001592  50.9826  56.3284 15.08816463  1300,6917.9519999999975,95.439,540.919,538.716,0.0
51876.0,STARLINK-3583,PAYLOAD,2022-06-08 22:00:01,15.08843937,0.0001713,53.2177,38.2563,46.5996,72.3578,-0.0033055,-0.00052518,0.0,0 STARLINK-3583,1 51876U 22022AA  22159.91668981 -.00052518  00000-0 -33055-2 0  9993,2 51876  53.2177  38.2563 0001713  46.5996  72.3578 15.08843937 16324,6917.868,95.437,540.918,538.548,0.0
51876.0,STARLINK-3583,PAYLOAD,2022-06-09 14:00:01,15.08805838,0.000154,53.2175,35.2622,51.7371,90.3062,0.0024712,0.00039224,0.0,0 STARLINK-3583,1 51876U 22022AA  22160.58334491  .00039224  00000-0  24712-2 0  9991,2 51876  53.2175  35.2622 0001540  51.7371  90.3062 15.08805838  1306,6917.985,95.44,540.915,538.784,0.0
51876.0,STARLINK-3583,PAYLOAD,2022-06-09 22:00:00,15.08831632,0.0001709,53.2174,33.7677,47.7146,105.9021,-0.00071958,-0.00011719,0.0,0 STARLINK-3583,1 51876U 22022AA  22160.91667824 -.00011719  00000-0 -71958-3 0  9993,2 51876  53.2174  33.7677 0001709  47.7146 105.9021 15.08831632  1309,6917.906,95.438,540.953,538.589,0.0
51876.0,STARLINK-3583,PAYLOAD,2022-06-10 00:00:00,15.08817298,0.0001757,53.2175,33.394,46.6,199.9155,0.0013254,0.00020856,0.0,0 STARLINK-3583,1 51876U 22022AA  22161.00001157  .00020856  00000-0  13254-2 0  9999,2 51876  53.2175  33.3940 0001757  46.6000 199.9155 15.08817298 16487,6917.95,95.439,541.03,538.599,0.0
51876.0,STARLINK-3583,PAYLOAD,2022-06-10 14:00:01,15.08828262,0.0001585999999999,53.2172,30.7731,54.1117,122.681,0.002255,0.00035771,0.0,0 STARLINK-3583,1 51876U 22022AA  22161.58334491  .00035771  00000-0  22550-2 0  9993,2 51876  53.2172  30.7731 0001586  54.1117 122.6810 15.08828262  1305,6917.916,95.438,540.878,538.684,0.0
51876.0,STARLINK-3583,PAYLOAD,2022-06-10 22:00:00,15.08849324,0.0001747,53.2171,29.2786,48.7602,139.6302,-0.0006031,-9.876e-05,0.0,0 STARLINK-3583,1 51876U 22022AA  22161.91667824 -.00009876  00000-0 -60310-3 0  9995,2 51876  53.2171  29.2786 0001747  48.7602 139.6302 15.08849324  1300,6917.852,95.437,540.925,538.508,0.0
51876.0,STARLINK-3583,PAYLOAD,2022-06-11 06:00:00,15.08864949,0.0001671,53.2168,27.7816,46.4406,153.5521,-0.0035184,-0.00055888,0.0,0 STARLINK-3583,1 51876U 22022AA  22162.25001157 -.00055888  00000-0 -35184-2 0  9998,2 51876  53.2168  27.7816 0001671  46.4406 153.5521 15.08864949 16670,6917.804,95.436,540.825,538.513,0.0
51876.0,STARLINK-3583,PAYLOAD,2022-06-11 22:00:00,15.08837408,0.0001749,53.2169,24.7896,47.0485,176.1222,0.00027042,4.018e-05,0.0,0 STARLINK-3583,1 51876U 22022AA  22162.91667824  .00004018  00000-0  27042-3 0  9992,2 51876  53.2169  24.7896 0001749  47.0485 176.1222 15.08837408 16776,6917.888000000001,95.438,540.9630000000002,538.543,0.0
51876.0,STARLINK-3583,PAYLOAD,2022-06-12 14:00:01,15.08824868,0.0001548,53.217,21.795,50.5588,195.8134,0.0015491,0.00024442,0.0,0 STARLINK-3583,1 51876U 22022AA  22163.58334491  .00024442  00000-0  15491-2 0  9994,2 51876  53.2170  21.7950 0001548  50.5588 195.8134 15.08824868  1305,6917.927,95.439,540.863,538.721,0.0
51876.0,STARLINK-3583,PAYLOAD,2022-06-12 22:00:00,15.08831355,0.0001769,53.217,20.3005,45.1924,212.7709,0.00068855,0.00010685,0.0,0 STARLINK-3583,1 51876U 22022AA  22163.91667824  .00010685  00000-0  68855-3 0  9997,2 51876  53.2170  20.3005 0001769  45.1924 212.7709 15.08831355  1306,6917.906999999997,95.438,540.996,538.548,0.0
51876.0,STARLINK-3583,PAYLOAD,2022-06-13 06:00:02,15.088728,0.0001725,53.217,18.8032,45.7135,223.9011,-0.0045001,-0.00071264,0.0,0 STARLINK-3583,1 51876U 22022AA  22164.25002315 -.00071264  00000-0 -45001-2 0  9992,2 51876  53.2170  18.8032 0001725  45.7135 223.9011 15.08872800 16979,6917.78,95.435,540.8380000000002,538.452,0.0
51876.0,STARLINK-3583,PAYLOAD,2022-06-13 14:00:01,15.08826256,0.000171,53.2173,17.3058,53.4583,227.6997,0.0021167,0.00033547,0.0,0 STARLINK-3583,1 51876U 22022AA  22164.58334491  .00033547  00000-0  21167-2 0  9998,2 51876  53.2173  17.3058 0001710  53.4583 227.6997 15.08826256 17026,6917.922,95.438,540.97,538.604,0.0
51876.0,STARLINK-3583,PAYLOAD,2022-06-13 22:00:00,15.08841307,0.0001887,53.2173,15.8112,47.2677,245.4879,0.00070933,0.00011019,0.0,0 STARLINK-3583,1 51876U 22022AA  22164.91667824  .00011019  00000-0  70933-3 0  9990,2 51876  53.2173  15.8112 0001887  47.2677 245.4879 15.08841307  1305,6917.876,95.437,541.047,538.436,0.0
51876.0,STARLINK-3583,PAYLOAD,2022-06-14 06:00:00,15.08864732,0.0001749,53.2173,14.3139,46.1926,258.1636,-0.0033337,-0.0005298999999999,0.0,0 STARLINK-3583,1 51876U 22022AA  22165.25001157 -.00052990  00000-0 -33337-2 0  9990,2 51876  53.2173  14.3139 0001749  46.1926 258.1636 15.08864732 17126,6917.805,95.436,540.88,538.46,0.0
51876.0,STARLINK-3583,PAYLOAD,2022-06-14 14:00:01,15.08841091,0.0001701,53.2176,12.8165,53.19300000000001,262.7568,-0.001089,-0.00017578,0.0,0 STARLINK-3583,1 51876U 22022AA  22165.58334491 -.00017578  00000-0 -10890-2 0  9998,2 51876  53.2176  12.8165 0001701  53.1930 262.7568 15.08841091  1303,6917.877,95.437,540.919,538.565,0.0
51876.0,STARLINK-3583,PAYLOAD,2022-06-14 22:00:00,15.08808594,0.0001943,53.2175,11.3219,48.7549,278.7836,0.00135,0.00021244,0.0,0 STARLINK-3583,1 51876U 22022AA  22165.91667824  .00021244  00000-0  13500-2 0  9998,2 51876  53.2175  11.3219 0001943  48.7549 278.7836 15.08808594 17224,6917.976,95.44,541.186,538.497,0.0
51876.0,STARLINK-3583,PAYLOAD,2022-06-15 14:00:01,15.08835459,0.0001746,53.2177,8.3273,55.5444,295.1402,0.0012811,0.00020157,0.0,0 STARLINK-3583,1 51876U 22022AA  22166.58334491  .00020157  00000-0  12811-2 0  9999,2 51876  53.2177   8.3273 0001746  55.5444 295.1402 15.08835459  1307,6917.894,95.438,540.967,538.5509999999998,0.0
